name,address,town,district,city,state,postal code,telephone,email,remarks
Pusarla And Co,"12-8-62, Gandhi Market",,VISAKHAPATNAM,ANAKAPALLE-AP,ANDHRA PRADESH,531001,919704455556,sakethpusarla@yahoo.com,"12-8-62, Gandhi Market,"
Sivaram Electricals And Plumbi,"5/24, Main Road,Nr.State Bank of India",Yellamanchili,VISAKHAPATNAM,ANAKAPALLE-AP,ANDHRA PRADESH,531055,919951826585,ravichandra.uv@gmail.com,"5/24, Main Road,Nr.State Bank of India,Yellamanchili"
Sri Ganesh Sai Bhavani Enterpr,"6-3/4, Sri Ganga Vaibhav Niavs","Nr.SK Park, Velupula Veedhi, Anakapalle",VISAKHAPATNAM,ANAKAPALLE-AP,ANDHRA PRADESH,531001,919705900178,sriganeshsaibhavanienterprises@gmail.com,"6-3/4, Sri Ganga Vaibhav Niavs,Nr.SK Park, Velupula Veedhi, Anakapalle"
Mahadev Electricals And Hardwa,"8-1-122/1, Near State Bank of India, Main Road",Amadalavalasa,SRIKAKULAM,AMADALAVALASA-AP,ANDHRA PRADESH,532185,+919581864070,mukeshsamta7071@gmail.com,"8-1-122/1, Near State Bank of India, Main Road,Amadalavalasa"
Sri Rama Krishna Traders,"92/2,palakonda Road,ragolu,srikakulam",,SRIKAKULAM,AMADALAVALASA-AP,ANDHRA PRADESH,532484,9989592555,Balagapandurangarao@gmail.com,"92/2,palakonda Road,ragolu,srikakulam,"
Lakshmi Ranga Electricals,"18/162,Near Triveni Talkies","Tilak Road,",ANANTAPUR,ANANTAPUR-AP,ANDHRA PRADESH,515001,919704037847,Lakshmiranga77@gmail.com,"18/162,Near Triveni Talkies,Tilak Road,"
Lakshmi Ranga Electricals,"18/162,Near Triveni Talkies","Tilak Road,",ANANTAPUR,ANANTAPUR-AP,ANDHRA PRADESH,515001,919704037847,Lakshmiranga77@gmail.com,"18/162,Near Triveni Talkies,Tilak Road,"
Sri Lakshmi Narasimha Agencies,"13-2-388/4, Flat No.4,Rajahamsa Great Empire","IstFlr,B/HChandraHospital,Srinivasanagar",ANANTAPUR,ANANTAPUR-AP,ANDHRA PRADESH,515001,919849836071,karanamteja@gmail.com,"13-2-388/4, Flat No.4,Rajahamsa Great Empire,IstFlr,B/HChandraHospital,Srinivasanagar"
Sri Venkata Maruthi Electrical,"Sanitary Wares, 28/68, Subhash Road",Old Town,ANANTAPUR,ANANTAPUR-AP,ANDHRA PRADESH,515001,+919440384156,jana74.atp@gmail.com,"Sanitary Wares, 28/68, Subhash Road,Old Town"
Mallikarjuna Electricals,"Shop No 2, Var Residency, Ground Floor, Near Hdfc","80ft Road, Ramnagar, Ananthaour",ANANTAPUR,ANANTAPUR-AP,ANDHRA PRADESH,515001,8433543477,Mallikarjunaelectricals.2004@gmail.com,"Shop No 2, Var Residency, Ground Floor, Near Hdfc,80ft Road, Ramnagar, Ananthaour"
Sai Teja Electricals,"7/754, N.S.C. Bose Road",Near RKT Petrol Bunk,NELLORE,ATMAKUR-AP,ANDHRA PRADESH,524001,919246422115,saitejaelectricals@yahoo.com,"7/754, N.S.C. Bose Road,Near RKT Petrol Bunk"
Sai Teja Electricals,"7/754, N.S.C. Bose Road",Near RKT Petrol Bunk,NELLORE,ATMAKUR-AP,ANDHRA PRADESH,524001,919246422115,saitejaelectricals@yahoo.com,"7/754, N.S.C. Bose Road,Near RKT Petrol Bunk"
Simhapuri Electrical Corporati,"Shop No. 18 and 19, G.V.Sr. Complex,",,NELLORE,ATMAKUR-AP,ANDHRA PRADESH,524001,919440722355,secorpnlr@gmail.com,"Shop No. 18 and 19, G.V.Sr. Complex,,"
Simhapuri Electrical Corporati,"Shop No. 18 and 19, G.V.Sr. Complex,",,NELLORE,ATMAKUR-AP,ANDHRA PRADESH,524001,919440722355,secorpnlr@gmail.com,"Shop No. 18 and 19, G.V.Sr. Complex,,"
S S V Enterprses,"Devireddyvaristreet, 14/205,Koramvaristreet","Near Kapustreet,Sri Potti Sriramulu",NELLORE,ATMAKUR-AP,ANDHRA PRADESH,524001,9494300782,pamidivikram99@gmail.com,"Devireddyvaristreet, 14/205,Koramvaristreet,Near Kapustreet,Sri Potti Sriramulu"
Sri Sainath Tiles & Electrical,"5/79/12/13,opp Vinayaka Temple,canal Road","Attili,west Godavari, Andhra Pradesh",WEST GODAVARI,ATTILI-AP,ANDHRA PRADESH,534134,9640888996,Avpbabu6@gmail.com,"5/79/12/13,opp Vinayaka Temple,canal Road,Attili,west Godavari, Andhra Pradesh"
Vijayalakshmi Electricals,"3/96, Main Road",Agiripalli,KRISHNA,AUKIRIPALLI-AP,ANDHRA PRADESH,521211,918522804803,Vijayalakshmielectricalsagp17@gmail.com,"3/96, Main Road,Agiripalli"
Ganesh Electrical And Gl.Store,"Ganesh Complex, Cinema Road","Amalapuram,",EAST GODAVARI,AMALAPURAM-AP,ANDHRA PRADESH,533201,919440321117,jeevanb6b6@rediffmail.com,"Ganesh Complex, Cinema Road,Amalapuram,"
Sri Aiswarya Agencies,"DN-6-71 Indupalli,Amalapuram Mandal",Indupalli,EAST GODAVARI,AMALAPURAM-AP,ANDHRA PRADESH,533201,919491627593,jyothiganesh99@gmail.com,"DN-6-71 Indupalli,Amalapuram Mandal,Indupalli"
Aditya Sravani Agencies,"D.No.15/144,Chitada Dibba,Mr.RTC Complex",S. Kota,VISAKHAPATNAM,ANANTHAGIRI-AP,ANDHRA PRADESH,535145,919490972436,adityasravaniagencies@gmail.com,"D.No.15/144,Chitada Dibba,Mr.RTC Complex,S. Kota"
Muni Enterprises,"1/11,Sandustreet,Bhakarapeta,Chittoor",,CHITTOOR,BHAKARAPET-AP,ANDHRA PRADESH,517194,9494067878,Hemaprasad626@gmail.com,"1/11,Sandustreet,Bhakarapeta,Chittoor,"
Vijayalakshmi Electricals,"7-44/135, Main Road",Tagarapuvalasa,VISAKHAPATNAM,BHEEMUNIPATNAM-AP,ANDHRA PRADESH,531163,+919441160851,ch.vikram94489@gmail.com,"7-44/135, Main Road,Tagarapuvalasa"
Bhavani Enterprises,"Shop No.1/10,Bathili Road,Karlemma Village",Srikakulam District,SRIKAKULAM,BHAMINI-AP,ANDHRA PRADESH,532455,+919121726196,srchoudharysrchoudhary733@gmail.com,"Shop No.1/10,Bathili Road,Karlemma Village,Srikakulam District"
Rajeshwar Electricals,"26/32, Sri Venkateswara Complex, Nivagam Road,","Kotturu, Srikakulam Dist",SRIKAKULAM,BHAMINI-AP,ANDHRA PRADESH,532455,7013860865,kapuraram9121@gmail.com,"26/32, Sri Venkateswara Complex, Nivagam Road,,Kotturu, Srikakulam Dist"
JK Enterprises,"100-3, Jambuvaripalle, Mbt Road, Bangarupalyem,",Chittoor,CHITTOOR,BANGARUPALEM-AP,ANDHRA PRADESH,517416,7989112147,Kammasunil@gmail.com,"100-3, Jambuvaripalle, Mbt Road, Bangarupalyem,,Chittoor"
JK Enterprises,"100-3, Jambuvaripalle, Mbt Road, Bangarupalyem,",Chittoor,CHITTOOR,BANGARUPALEM-AP,ANDHRA PRADESH,517416,7989112147,Kammasunil@gmail.com,"100-3, Jambuvaripalle, Mbt Road, Bangarupalyem,,Chittoor"
Kumar Electrical And Home Need,P.P.Road,,WEST GODAVARI,BHIMAVARAM-AP,ANDHRA PRADESH,534201,919849154300,pramodjain595@gmail.com,"P.P.Road,"
Kumar Enterprises,D.No:22-2-155,"P. P. Road, Bhimavaram",WEST GODAVARI,BHIMAVARAM-AP,ANDHRA PRADESH,534201,9866228009,pramodjain595@gmail.com,"D.No:22-2-155,P. P. Road, Bhimavaram"
Mahadev Enterprises,"D.No.14-111, Janda Street, Balijipeta Road","OPP Rajavari Fort, Bobbili",VIZIANAGARAM,BOBBILI-AP,ANDHRA PRADESH,535558,919494327250,ganeshramchowdhari@gmail.com,"D.No.14-111, Janda Street, Balijipeta Road,OPP Rajavari Fort, Bobbili"
Venu Electrical Centre,"13-87/B,Main road, Nr.Krishna Talkies",Bobbili,VIZIANAGARAM,BOBBILI-AP,ANDHRA PRADESH,535558,919440105447,sunkarimanikanta447@gmail.com,"13-87/B,Main road, Nr.Krishna Talkies,Bobbili"
Pavanputra Enterprises,"32/39, , Pavan Putra Enterprises,","Main Road, Bobbili, Vizianagaram,",VIZIANAGARAM,BOBBILI-AP,ANDHRA PRADESH,535558,9494773360,Ravi.pavanaputra@gmail.com,"32/39, , Pavan Putra Enterprises,,Main Road, Bobbili, Vizianagaram,"
Mahadev Electricals,"13-13,krishna Theatre Road,bobbili",Vizianagaram,VIZIANAGARAM,BOBBILI-AP,ANDHRA PRADESH,535558,8374925747,Dudaram8374@gmail.com,"13-13,krishna Theatre Road,bobbili,Vizianagaram"
B M R Steel Corporation,"2/20,Main Road, Nuthalapadu",Parchur Mandal,PRAKASAM,CHIRALA-AP,ANDHRA PRADESH,523169,919441045228,harinadhareddy.bmr@gmail.com,"2/20,Main Road, Nuthalapadu,Parchur Mandal"
B M R Steel Corporation,"2/20,Main Road, Nuthalapadu",Parchur Mandal,PRAKASAM,CHIRALA-AP,ANDHRA PRADESH,523169,919441045228,harinadhareddy.bmr@gmail.com,"2/20,Main Road, Nuthalapadu,Parchur Mandal"
Venkata Ramana Electrical Stor,"21-1-95, AR Road, Perala",,PRAKASAM,CHIRALA-AP,ANDHRA PRADESH,523155,+919848211657,suryasite@gmail.com,"21-1-95, AR Road, Perala,"
Lakhsmi Distributors,"20-12-18 Ward No-20,",Brahmasamajamu Road,PRAKASAM,CHIRALA-AP,ANDHRA PRADESH,523155,9959579799,Lakshmidistributoschirala@gmail.com,"20-12-18 Ward No-20,,Brahmasamajamu Road"
Chikkala Satyanarayana Electri,"Motors, D.No.15-243/5, Eluru Road,Nr.Sai Baba Temple",Chintalapudi,WEST GODAVARI,CHINTALAPUDI-AP,ANDHRA PRADESH,534460,+919441886888,chikkalaelectricals@gmail.com,"Motors, D.No.15-243/5, Eluru Road,Nr.Sai Baba Temple,Chintalapudi"
Dhanvi Infrastructures,"1-155, Gonduru , Paderu",Visakhapatnam,VISAKHAPATNAM,CHODAVARAM-AP,ANDHRA PRADESH,531024,6302924426,Mohantalasila@gmail.com,"1-155, Gonduru , Paderu,Visakhapatnam"
Maruthi Enterprises,"D No. 8-161-f, Sathya Sai Nagar",Dharmavaram,ANANTAPUR,DHARMAVARAM-AP,ANDHRA PRADESH,515671,9618002327,Rajasekharnaidu.pr@gmail.com,"D No. 8-161-f, Sathya Sai Nagar,Dharmavaram"
New Shasha Electricals,"Room No.7, Sudharsan Complex, R S Road",Dharmavaram,ANANTAPUR,DHARMAVARAM-AP,ANDHRA PRADESH,515671,919030490017,newshasha80@gmail.com,"Room No.7, Sudharsan Complex, R S Road,Dharmavaram"
Sri Kanipakavinayaka Traders,"7/502-1, Geetha Nagar",,ANANTAPUR,DHARMAVARAM-AP,ANDHRA PRADESH,515671,+919676758801,kvtradersdmm@gmail.com,"7/502-1, Geetha Nagar,"
Anjana Enterprises,"2/532 UP, Shastry Nagar,Y M R Colony",Proddatur,CUDDAPAH,CUDDAPAH-AP,ANDHRA PRADESH,516360,919030788358,karunanjan.reddy8@gmail.com,"2/532 UP, Shastry Nagar,Y M R Colony,Proddatur"
AS Enterprises,"12/142, Gangamma Temple Street",Proddatur,CUDDAPAH,CUDDAPAH-AP,ANDHRA PRADESH,516360,919440531632,spacynayab@gmail.com,"12/142, Gangamma Temple Street,Proddatur"
Kanyaka Enterprises,"18/549, B K Street",,CUDDAPAH,CUDDAPAH-AP,ANDHRA PRADESH,516001,+917013454699,kanyaka1978@gmail.com,"18/549, B K Street,"
Lakshmi Srinivasa Traders,"D.No. 14/14, Alligaig Street, Myduk",,CUDDAPAH,CUDDAPAH-AP,ANDHRA PRADESH,516360,919912901082,slst.13y@gmail.com,"D.No. 14/14, Alligaig Street, Myduk,"
Ramsaa Electrical,"21/435/1,VSM Street",,CUDDAPAH,CUDDAPAH-AP,ANDHRA PRADESH,516001,919000466636,ramsaaelectricalskadapa@gmail.com,"21/435/1,VSM Street,"
Sai Deepthi Electricals,"12/314, Gangamma Temple Street","Proddatur, YSR Distriect",CUDDAPAH,CUDDAPAH-AP,ANDHRA PRADESH,516360,919290304850,saideepthi4850@gmail.com,"12/314, Gangamma Temple Street,Proddatur, YSR Distriect"
Sree Vasavi Enterprises,"12/148, G T Street, Opp. E-Seva",Proddatur,CUDDAPAH,CUDDAPAH-AP,ANDHRA PRADESH,516360,919666661646,vasaviramana69@gmail.com,"12/148, G T Street, Opp. E-Seva,Proddatur"
Mahadev Galaxie,"21/428-1,veera Swamy Mundy Street,kadapa",,CUDDAPAH,CUDDAPAH-AP,ANDHRA PRADESH,516001,9000552544,Jjjigarjagirdar@gmail.com,"21/428-1,veera Swamy Mundy Street,kadapa,"
Sri Saraswathi Electricals,"4 594, 7 Roads,kadapa,ysr District,kadapa",,CUDDAPAH,CUDDAPAH-AP,ANDHRA PRADESH,516001,8978762353,Pothuravi123@gmail.com,"4 594, 7 Roads,kadapa,ysr District,kadapa,"
Bhavishya Enterprises,"Shop No.1, Door No.3-145-1/1","Kadiri Road, Madanapalle",CHITTOOR,CHITTOOR-AP,ANDHRA PRADESH,517325,919492920813,abcsreedharabc@gmail.com,"Shop No.1, Door No.3-145-1/1,Kadiri Road, Madanapalle"
Devatha Paints And Hardwares,"14-2-5-1,Under Ground,  Ctm Road,",,CHITTOOR,CHITTOOR-AP,ANDHRA PRADESH,517325,919848857565,dnshankar@yahoo.com,"14-2-5-1,Under Ground,  Ctm Road,,"
Devatha Paints And Hardwares,"14-2-5-1,Under Ground,  Ctm Road,",,CHITTOOR,CHITTOOR-AP,ANDHRA PRADESH,517325,919848857565,dnshankar@yahoo.com,"14-2-5-1,Under Ground,  Ctm Road,,"
D S Enterprises,"D No.2-250-67,Kidiri Road,Opp.AMC Yard","Neeruguttuvaripalli, Madanapalli",CHITTOOR,CHITTOOR-AP,ANDHRA PRADESH,517325,919848865265,kiran61@yahoo.com,"D No.2-250-67,Kidiri Road,Opp.AMC Yard,Neeruguttuvaripalli, Madanapalli"
Om Sri Vijayalakshmi Agencies,"10316/1, D I Road,",,CHITTOOR,CHITTOOR-AP,ANDHRA PRADESH,517001,9391665255,Srivinayaka787@gmail.com,"10316/1, D I Road,,"
R S Communications,"5-58r-2,apparao Thota",Mandanapalli Chittoor,CHITTOOR,CHITTOOR-AP,ANDHRA PRADESH,517325,9160160165,Kn.raghu9@gmail.com,"5-58r-2,apparao Thota,Mandanapalli Chittoor"
Sri Vinayaka Electricals,"11/483,Church Street",,CHITTOOR,CHITTOOR-AP,ANDHRA PRADESH,517001,919704515551,giri.thanish@gmail.com,"11/483,Church Street,"
Sri Sarveswara Agencies,"11-1-8, Park Centre, Pithapuram",,EAST GODAVARI,EAST GODAVARI-AP,ANDHRA PRADESH,533450,919246633445,srisarveswaraagencies@gmail.com,"11-1-8, Park Centre, Pithapuram,"
Vinayaka Electricals And Gener,"D.No.6-1/12, Main Road",Pithapuram,EAST GODAVARI,EAST GODAVARI-AP,ANDHRA PRADESH,533450,919849055655,Kiranchakka999@gmail.com,"D.No.6-1/12, Main Road,Pithapuram"
Sri Rama Aditya Agencies,"1st Floor, Beside Of Lift, 104-8-126, Near Maseedu","Chaitanya Nagar-2, Hukumpeta,",EAST GODAVARI,EAST GODAVARI-AP,ANDHRA PRADESH,533107,9247760109,Sriramaadityaagencies2021@gmail.com,"1st Floor, Beside Of Lift, 104-8-126, Near Maseedu,Chaitanya Nagar-2, Hukumpeta,"
Sri Bhavani Steel Corporation,"10-142/143, Karampudi Road","High Wayroad, Dachepalli",GUNTUR,DACHEPALLE-AP,ANDHRA PRADESH,522414,919490640027,sribhavanisteels52@gmail.com,"10-142/143, Karampudi Road,High Wayroad, Dachepalli"
Balaji Enterprises,"7-15-21, Pottisriramulu Road, Giddalur",,PRAKASAM,GIDDALUR-AP,ANDHRA PRADESH,523357,7660049225,Akhilapakki@gmail.com,"7-15-21, Pottisriramulu Road, Giddalur,"
Satyavathi Agencies,"4-96, Gopavaram Post, Gopavaram, Musunuru Mandal",,KRISHNA,GUDIVADA-AP,ANDHRA PRADESH,521207,919912536123,nagendraprasad.botla@gmail.com,
Vasavi Traders,"5/107,Old Town, Main Road",,KRISHNA,GUDIVADA-AP,ANDHRA PRADESH,521301,9246947450,sreertraders@gmail.com,"5/107,Old Town, Main Road,"
Jai Bhavani Electricals &Sanit,"Stores, 16/146,147,,vasavi Chowk,tankbund Road,gudivada.",,KRISHNA,GUDIVADA-AP,ANDHRA PRADESH,521301,7013400834,Durgaram.prajapat9@gmail.com,"Stores, 16/146,147,,vasavi Chowk,tankbund Road,gudivada.,"
Kamala Marketing,"10/285, Rajendranagar, 3rd Lane",Gudivada,KRISHNA,GUDIVADA-AP,ANDHRA PRADESH,521301,+918341130999,kamalamarketing5400@gmail.com,"10/285, Rajendranagar, 3rd Lane,Gudivada"
Gayathri Enterprises,"20/79 A7/1,Nr.Berappa Temple,Guntakal",,ANANTAPUR,GUNTAKAL-AP,ANDHRA PRADESH,515801,919985052874,gayathrienterprisesgtl@gmail.com,"20/79 A7/1,Nr.Berappa Temple,Guntakal,"
Gayathri Enterprises,"20/79 A7/1,Nr.Berappa Temple,Guntakal",,ANANTAPUR,GUNTAKAL-AP,ANDHRA PRADESH,515801,919985052874,gayathrienterprisesgtl@gmail.com,"20/79 A7/1,Nr.Berappa Temple,Guntakal,"
Rakshitha Enterprises,"18/55, KNP Complex,",Beside Karur Vysya Bank,ANANTAPUR,GUNTAKAL-AP,ANDHRA PRADESH,515801,919908718454,rakshitha.gtl@gmail.com,"18/55, KNP Complex,,Beside Karur Vysya Bank"
Rakshitha Enterprises,"18/55, KNP Complex,",Beside Karur Vysya Bank,ANANTAPUR,GUNTAKAL-AP,ANDHRA PRADESH,515801,919908718454,rakshitha.gtl@gmail.com,"18/55, KNP Complex,,Beside Karur Vysya Bank"
Jain Electricals,"Behind of Guravaiah College, 6/7, Brodipet",,GUNTUR,GUNTUR-AP,ANDHRA PRADESH,522002,+919440511837,jaingnt@gmail.com,"Behind of Guravaiah College, 6/7, Brodipet,"
Jain Electricals,"Behind of Guravaiah College, 6/7, Brodipet",,GUNTUR,GUNTUR-AP,ANDHRA PRADESH,522002,+919440511837,jaingnt@gmail.com,"Behind of Guravaiah College, 6/7, Brodipet,"
Poornima Electricals,"5-37-211, 4/7 Brodipet",,GUNTUR,GUNTUR-AP,ANDHRA PRADESH,522002,919849504015,poornimagnt@gmail.com,"5-37-211, 4/7 Brodipet,"
Prakash Electricals(Tenali),"Gandhi Chowk, Nehru Road",,GUNTUR,GUNTUR-AP,ANDHRA PRADESH,522201,918644227407,charanrajchunduru@gmail.com,"Gandhi Chowk, Nehru Road,"
Raja Ram Electricals,"23-6-112, Patnam Bazar",,GUNTUR,GUNTUR-AP,ANDHRA PRADESH,522003,9848248028,rajaramelectricals3@gmail.com,"23-6-112, Patnam Bazar,"
Sai Manogna Agencies,"7-9/10,Kakumanuvari Street",Narasaraopet,GUNTUR,GUNTUR-AP,ANDHRA PRADESH,522601,919849352040,kolluruhari1978@gmail.com,"7-9/10,Kakumanuvari Street,Narasaraopet"
Vijaya Lamp House,"14-1-107, Vinukonda Road,",Guntur Dist.,GUNTUR,GUNTUR-AP,ANDHRA PRADESH,522601,+919848817554,vijayalamphouse45@gmail.com,"14-1-107, Vinukonda Road,,Guntur Dist."
Shree Enterprises,"5-86/12,S F 1, 3rd Floor","Kandala Residency,Ist Lane,Lakshmipuram",GUNTUR,GUNTUR-AP,ANDHRA PRADESH,522007,918096955548,shreeenterprises_nk@yahoo.com,"5-86/12,S F 1, 3rd Floor,Kandala Residency,Ist Lane,Lakshmipuram"
Vasavi Enterprises,"1 5-87-40/3, 2nd Floor, Kalanikethan Building, Main Road,",Lakshmipuram,GUNTUR,GUNTUR-AP,ANDHRA PRADESH,522006,9948144338,Vasavient999@gmail.com,"1 5-87-40/3, 2nd Floor, Kalanikethan Building, Main Road,,Lakshmipuram"
Sri Maruthi Traders,"D No 3-23-8, Asst No,1021009645,04th Lane,","Ravindra Nagar, Pattabhipuram",GUNTUR,GUNTUR-AP,ANDHRA PRADESH,522006,7075452345,Srimaruthitraders222@gmail.com,"D No 3-23-8, Asst No,1021009645,04th Lane,,Ravindra Nagar, Pattabhipuram"
Mukesh Electrical,5/25/126,"3rd Lane, 1st Cross Road, Brodipet",GUNTUR,GUNTUR-AP,ANDHRA PRADESH,522002,9703512735,Mukeshelectricals37@gmail.com,"5/25/126,3rd Lane, 1st Cross Road, Brodipet"
Signet Electricals,"Shop No 18, Kubera Towers,","15/1 Lane, Arundelpet",GUNTUR,GUNTUR-AP,ANDHRA PRADESH,522002,8332030303,Signetelectricals19@gmail.com,"Shop No 18, Kubera Towers,,15/1 Lane, Arundelpet"
Mak Vision Lighting,20-25-129,"Behind Lutheran Church, Chinaravuru",GUNTUR,GUNTUR-AP,ANDHRA PRADESH,522201,6304059950,Maks@maksolutions.in,"20-25-129,Behind Lutheran Church, Chinaravuru"
Sai Gopikrishna Agencies,"7/2/142, D B Lane, D L Road Cross",Hindupur,ANANTAPUR,HINDUPUR-AP,ANDHRA PRADESH,515201,919440455602,thathabalaji@gmail.com,"7/2/142, D B Lane, D L Road Cross,Hindupur"
Manvitha Enterprises,"23/16, Palakonda Road,",Nellimarla,VIZIANAGARAM,GURLA-AP,ANDHRA PRADESH,535217,9491696646,Nari.jammu@gmail.com,"23/16, Palakonda Road,,Nellimarla"
Sri Vasavi Electricals,"Gowthamipura Complex, Road No.2, Goothy.",,ANANTAPUR,GOOTY-AP,ANDHRA PRADESH,515401,919848503470,gootybujji@gmail.com,"Gowthamipura Complex, Road No.2, Goothy.,"
Sanju Building Needs,"1/1190/3E,Near Republic ITI","Bypass Road, Ananthapur Road and Distric",ANANTAPUR,KADIRI-AP,ANDHRA PRADESH,515591,919849595957,redra_ind@yahoo.com,"1/1190/3E,Near Republic ITI,Bypass Road, Ananthapur Road and Distric"
S L V Enterprises,"12/49, Narayana Rao Street","Old SBI Behind, Kadiri",ANANTAPUR,KADIRI-AP,ANDHRA PRADESH,515591,919248782587,slventerprises_1999@yahoo.com,"12/49, Narayana Rao Street,Old SBI Behind, Kadiri"
Sree Venkata Sai Surya Agencie,"Ground Floor, 11/173, T. R. Street, Kadiri",Anantapur,ANANTAPUR,KADIRI-AP,ANDHRA PRADESH,515591,9440781949,Sreevenkatasaisuryaagencies@gmail.com,"Ground Floor, 11/173, T. R. Street, Kadiri,Anantapur"
Deluxe Agencies,"1-734-1-b, Bypass Road, Kadiri,","Anantapur, Andhra Pradesh",ANANTAPUR,KADIRI-AP,ANDHRA PRADESH,515591,9885252528,Yahiyakhan@gmail.com,"1-734-1-b, Bypass Road, Kadiri,,Anantapur, Andhra Pradesh"
Sri Venkateswara Electricals,"Police Complex,Banugudi Junction",,EAST GODAVARI,KAKINADA-AP,ANDHRA PRADESH,533003,919849899602,sve.ele@gmail.com,"Police Complex,Banugudi Junction,"
Sri Swamy Electricals And Plum,"D.No.3-18, Shop No.3,Ground Floor","Benda Complex,Sarpavaram Junction",EAST GODAVARI,KAKINADA-AP,ANDHRA PRADESH,533005,919676151515,sriswamy.ele@gmail.com,"D.No.3-18, Shop No.3,Ground Floor,Benda Complex,Sarpavaram Junction"
Sri Sneha Agencies,"37-5-4, Patnala Vari Street",,EAST GODAVARI,KAKINADA-AP,ANDHRA PRADESH,533001,+919951514280,srisnehaagencies@gmail.com,"37-5-4, Patnala Vari Street,"
Santhi,Plot No 2,"Thimmapuram Road,near  Guda Circle",EAST GODAVARI,KAKINADA-AP,ANDHRA PRADESH,533005,9848472628,Santhipvcpipes@gmail.com,"Plot No 2,Thimmapuram Road,near  Guda Circle"
Rajendra Electricals,"37 1 27, Main Road, Gold Market Centre,",Kakinada,EAST GODAVARI,KAKINADA-AP,ANDHRA PRADESH,533001,919848425051,rajendraelectricals4u@gmail.com,"37 1 27, Main Road, Gold Market Centre,,Kakinada"
Hanvika Enterprises,"7-59, Atchapetai Junction, Thimmapuram Village",Kakinada,EAST GODAVARI,KAKINADA-AP,ANDHRA PRADESH,533005,7337557894,Hanvikaenterprises.inquiry@gmail.com,"7-59, Atchapetai Junction, Thimmapuram Village,Kakinada"
Sri Om Sai Electricals And Har,"Shop No.10, T B Road,Mandal Complex",Kalikiri,CHITTOOR,KALIKIRI-AP,ANDHRA PRADESH,517234,+919177868766,harshacnk@gmail.com,"Shop No.10, T B Road,Mandal Complex,Kalikiri"
Costal Aqua Trading,"4-193/2,Gollapalem Village",Kajuluru Mandal,EAST GODAVARI,KAJULURU-AP,ANDHRA PRADESH,533468,916281802449,costal.aqua@gmail.com,"4-193/2,Gollapalem Village,Kajuluru Mandal"
Costal Aqua Trading,"4-193/2,Gollapalem Village",Kajuluru Mandal,EAST GODAVARI,KAJULURU-AP,ANDHRA PRADESH,533468,916281802449,costal.aqua@gmail.com,"4-193/2,Gollapalem Village,Kajuluru Mandal"
Shree Jayam Enterprises,"76/119-D-5-38-F, Near Ballari X Road Mahaveer Nagar Kurnool",Kurnool,KURNOOL,KALLUR-AP,ANDHRA PRADESH,518003,9121941003,Shreejayamenterprises2020@gmail.com,"76/119-D-5-38-F, Near Ballari X Road Mahaveer Nagar Kurnool,Kurnool"
Sri Lakshmi Agencies,"5/911, 912, Kurichedu Road",,PRAKASAM,KANIGIRI-AP,ANDHRA PRADESH,523247,+919849232170,srinukalavakolanu@gmail.com,"5/911, 912, Kurichedu Road,"
A V R Electricals And Sanitary,"D No 8/28/30, Opp Kapila Lodge, Kandukur Road",,PRAKASAM,KANIGIRI-AP,ANDHRA PRADESH,523230,9705619956,krishna.maram1221@gmail/.com,"D No 8/28/30, Opp Kapila Lodge, Kandukur Road,"
Sri Lalitha Traders,"Shop No 050, Municipal Shopping Complex","Kaluvapuvvu Center, Mandapeta",EAST GODAVARI,KAPILESWARAPURAM-AP,ANDHRA PRADESH,533308,9652307636,Srilalithatraders2020@gmail.com,"Shop No 050, Municipal Shopping Complex,Kaluvapuvvu Center, Mandapeta"
Raviteja Sanitary & Electrical,31/4/13 Old Bye Pass Road,Saidulapeta Mandapeta,EAST GODAVARI,KAPILESWARAPURAM-AP,ANDHRA PRADESH,533308,9618880444,Ravimandapeta444@gmail.com,"31/4/13 Old Bye Pass Road,Saidulapeta Mandapeta"
Hemanth Agencies,"1,4/146, Main Road, Elwinepeta,",G L Puram,VIZIANAGARAM,GUMMALAKSHMIPURAM-AP,ANDHRA PRADESH,535523,9441957234,Hemanthagenciesglp@gmail.com,"1,4/146, Main Road, Elwinepeta,,G L Puram"
Sri Shambhavi Agencies,"shop No.4, Raos Complex,Opp.Nawskar Hotel",Tanku Road,NELLORE,KAVALI-AP,ANDHRA PRADESH,524201,+919700515999,chegukirankumar@gmail.com,"shop No.4, Raos Complex,Opp.Nawskar Hotel,Tanku Road"
Sri Shakthi Agencies,"Door Number -10-259a, Kacheri Street",Tekkali,SRIKAKULAM,KOTABOMMALI-AP,ANDHRA PRADESH,532201,9490589189,Srishakthiagenciestkl@gmail.com,"Door Number -10-259a, Kacheri Street,Tekkali"
Sri Vijayalakshmi Agencies,"Shop No 2,1St Floor ,Vsp Road,","Kothavalasa,",VIZIANAGARAM,KOTHAVALASA-AP,ANDHRA PRADESH,535183,919989294535,vijayalakshmiagencies123@gmail.com,"Shop No 2,1St Floor ,Vsp Road,,Kothavalasa,"
Ravi Engineering & Building Ma,"6-13, Vizianagaram Road, Kothavalasa",Vizianagaram Dist,VIZIANAGARAM,KOTHAVALASA-AP,ANDHRA PRADESH,535183,9885373111,Raviengg.rajesh@gmail.com,"6-13, Vizianagaram Road, Kothavalasa,Vizianagaram Dist"
Sri Balaji Motors And Pipe Tra,"D.No.6-253-A,M.G.Road,","Beside Police Station,  Railway Kodur,",CUDDAPAH,KODUR-AP,ANDHRA PRADESH,516101,919866186892,svraju13@gmail.com,"D.No.6-253-A,M.G.Road,,Beside Police Station,  Railway Kodur,"
Sarneswara Agencies Koyyalagud,"11/141, Polavaram Road",Koyyalagudem,WEST GODAVARI,KOYYALAGUDEM-AP,ANDHRA PRADESH,534312,+919491175076,mali.bhawarlal@gmail.com,"11/141, Polavaram Road,Koyyalagudem"
ASKZ Innovations,"Plot No. 28, Door no. 40-9-87, 1st Flr,","Sai Nagar, Nr. Benz Circle, Vijayawada",KRISHNA,KRISHNA-AP,ANDHRA PRADESH,520010,+919177758144,khk561@gmail.com,"Plot No. 28, Door no. 40-9-87, 1st Flr,,Sai Nagar, Nr. Benz Circle, Vijayawada"
ASKZ Innovations,"Plot No. 28, Door no. 40-9-87, 1st Flr,","Sai Nagar, Nr. Benz Circle, Vijayawada",KRISHNA,KRISHNA-AP,ANDHRA PRADESH,520010,+919177758144,khk561@gmail.com,"Plot No. 28, Door no. 40-9-87, 1st Flr,,Sai Nagar, Nr. Benz Circle, Vijayawada"
Bharadwaja Marketing Agencies,"36-14-3/1, 1st Floor","A S Ramarao Road, Santhinagar",KRISHNA,KRISHNA-AP,ANDHRA PRADESH,520010,919848113222,bmakln@yahoo.com,"36-14-3/1, 1st Floor,A S Ramarao Road, Santhinagar"
Bharadwaja Marketing Agencies,"36-14-3/1, 1st Floor","A S Ramarao Road, Santhinagar",KRISHNA,KRISHNA-AP,ANDHRA PRADESH,520010,919848113222,bmakln@yahoo.com,"36-14-3/1, 1st Floor,A S Ramarao Road, Santhinagar"
Ever Light Electricals,"11/31/16/A, Park Road, One Town",,KRISHNA,KRISHNA-AP,ANDHRA PRADESH,520001,919848674345,everlightsun@gmail.com,"11/31/16/A, Park Road, One Town,"
Ever Light Electricals,"11/31/16/A, Park Road, One Town",,KRISHNA,KRISHNA-AP,ANDHRA PRADESH,520001,919848674345,everlightsun@gmail.com,"11/31/16/A, Park Road, One Town,"
Divya Sai Electricals,"11-27/1,Manikondavari Street",One Town,KRISHNA,KRISHNA-AP,ANDHRA PRADESH,520001,918019483304,sateesh.kotthamasu@gmail.com,"11-27/1,Manikondavari Street,One Town"
H Studio,"D.No.52-1/10-1/1, Hareesh Towers, Central Excise Colony",,KRISHNA,KRISHNA-AP,ANDHRA PRADESH,520007,9347684444,hemadrilestudio@gmail.com,"D.No.52-1/10-1/1, Hareesh Towers, Central Excise Colony,"
Madhukar Electrical Co.,"11-25-77, Sree Vijaya Durga Tower,",Samarangam Chowk,KRISHNA,KRISHNA-AP,ANDHRA PRADESH,520001,919885466341,madhukarvja@gmail.com,"11-25-77, Sree Vijaya Durga Tower,,Samarangam Chowk"
Madhukar Electrical Co.,"11-25-77, Sree Vijaya Durga Tower,",Samarangam Chowk,KRISHNA,KRISHNA-AP,ANDHRA PRADESH,520001,919885466341,madhukarvja@gmail.com,"11-25-77, Sree Vijaya Durga Tower,,Samarangam Chowk"
Mahesh New City Electricals,"11-12-22, Mekalavari Street","Kothapet, Vijayawada, Krishna",KRISHNA,KRISHNA-AP,ANDHRA PRADESH,520001,919912302302,mncelectricals@yahoo.com,"11-12-22, Mekalavari Street,Kothapet, Vijayawada, Krishna"
Smart Home Shopee,56-2-14/1 GJR CENTER PANTHAKALAVA,PATAMATA VIJAYAWADA,KRISHNA,KRISHNA-AP,ANDHRA PRADESH,520010,9100031448,smarthomeshoppee@gmail.com,"56-2-14/1 GJR CENTER PANTHAKALAVA,PATAMATA VIJAYAWADA"
Sri Jaya Shiva Electricals,"19-33A, Main Road, Ganesh Centre",Tiruvuru,KRISHNA,KRISHNA-AP,ANDHRA PRADESH,521235,919885056747,sjsvasu@gmail.com,"19-33A, Main Road, Ganesh Centre,Tiruvuru"
Sri Dhanalakshmi Enterprises,"D.No. 2-141, Mee Seva Road, Sai Nagar",Poranki,KRISHNA,KRISHNA-AP,ANDHRA PRADESH,521137,+919121516255,sdlevij@gmail.com,"D.No. 2-141, Mee Seva Road, Sai Nagar,Poranki"
Sri Sai Ayyappa Electricals,"D.No.23-11-67,N.R.P. Road,S.N. Puram",,KRISHNA,KRISHNA-AP,ANDHRA PRADESH,520011,919848248677,9848248677m@gmail.com,"D.No.23-11-67,N.R.P. Road,S.N. Puram,"
Surya Sanitary Stores,"12-6-34,Chinna Sattar Street",,KRISHNA,KRISHNA-AP,ANDHRA PRADESH,520001,+919246611523,ssskvd@ymail.com,"12-6-34,Chinna Sattar Street,"
Surya Sanitary Stores,"12-6-34,Chinna Sattar Street",,KRISHNA,KRISHNA-AP,ANDHRA PRADESH,520001,+919246611523,ssskvd@ymail.com,"12-6-34,Chinna Sattar Street,"
Vani Electricals,"Opp. Modern Cafe, Park Road, Vij",,KRISHNA,KRISHNA-AP,ANDHRA PRADESH,520001,919849327707,madhusudanarao1951@gmail.com,"Opp. Modern Cafe, Park Road, Vij,"
Vaasanth Power Solutions,"Ground Floor, D No.6-102/1, Umasankar Nagar Lane2",Kanuru,KRISHNA,KRISHNA-AP,ANDHRA PRADESH,520010,+919248483010,mail@vaasanthpower.com,"Ground Floor, D No.6-102/1, Umasankar Nagar Lane2,Kanuru"
Vijayawada Cable Corporation,"D.No.11-5-15, Rangannavari Street",Kothapet,KRISHNA,KRISHNA-AP,ANDHRA PRADESH,520001,919393926391,jain.vcc@gmail.com,"D.No.11-5-15, Rangannavari Street,Kothapet"
V L Enteprises,"Ground Floor, Modern Cafe Lodge,","11-31, 37/11, Park Road",KRISHNA,KRISHNA-AP,ANDHRA PRADESH,520001,919440150771,vlenterprisesap@gmail.com,"Ground Floor, Modern Cafe Lodge,,11-31, 37/11, Park Road"
V L Enteprises,"Ground Floor, Modern Cafe Lodge,","11-31, 37/11, Park Road",KRISHNA,KRISHNA-AP,ANDHRA PRADESH,520001,919440150771,vlenterprisesap@gmail.com,"Ground Floor, Modern Cafe Lodge,,11-31, 37/11, Park Road"
Sekhar & Rao,12-10-66,"Convent Street One Town, Vijayawada",KRISHNA,KRISHNA-AP,ANDHRA PRADESH,520001,9642323232,Sekharandrao@gmail.com,"12-10-66,Convent Street One Town, Vijayawada"
Sunlight Electricals,"11-25-367, Main Road, Vijayawada",,KRISHNA,KRISHNA-AP,ANDHRA PRADESH,520001,9966809800,Sunlight.bza@gmail.com,"11-25-367, Main Road, Vijayawada,"
My Electricals,Ground Floor 11-34-8,"Kutumba Rao Street One Town, Vijayawada",KRISHNA,KRISHNA-AP,ANDHRA PRADESH,520001,9966716789,Myelectricalsbza@gmai.com,"Ground Floor 11-34-8,Kutumba Rao Street One Town, Vijayawada"
Sri Sri Seetharama  Fan House,"D No 11-25-341, Samarangam Chowk,","One Town, Vijayawada.",KRISHNA,KRISHNA-AP,ANDHRA PRADESH,520001,9642325969,Sssfanhouse@gmail.com,"D No 11-25-341, Samarangam Chowk,,One Town, Vijayawada."
Sri Venkateswara Traders,"4th  Floor, 11-25-85 Sri Lalitha Complex","Main Bazar, Samarangam Chowk, Vijayawada",KRISHNA,KRISHNA-AP,ANDHRA PRADESH,520001,9441739829,Svtraders2307@gmail.com,"4th  Floor, 11-25-85 Sri Lalitha Complex,Main Bazar, Samarangam Chowk, Vijayawada"
Sumeet E Enterprises,11-31-28a,"Park Road, Vijayawada",KRISHNA,KRISHNA-AP,ANDHRA PRADESH,520001,9849518125,Iklik.vza@gmail.com,"11-31-28a,Park Road, Vijayawada"
Venkata Padma Traders,"14/118, Sairam Temple Street",Sompeta,SRIKAKULAM,KANCHILI MANDAL-AP,ANDHRA PRADESH,532284,+919440606665,ippilinavikumar1980@gmail.com,"14/118, Sairam Temple Street,Sompeta"
Kamalabai Building Materials,"15/105, Main Road, Sompeta, Srikakulam",,SRIKAKULAM,KANCHILI MANDAL-AP,ANDHRA PRADESH,532284,9885037536,Anilkumarkeella@gmail.com,"15/105, Main Road, Sompeta, Srikakulam,"
Sri Srinivasa Agencies,11-3-20 Rama Talkies Line,"Thurup Bavi Line, Macherla",GUNTUR,MACHERLA-AP,ANDHRA PRADESH,522426,919885789216,srisrinivasaagencies@gmail.com,"11-3-20 Rama Talkies Line,Thurup Bavi Line, Macherla"
Gupta Kumar Electricals,"25-238, Near Jagannadha Swamy Temple,","agannadha Puram,",KRISHNA,MACHILIPATNAM-AP,ANDHRA PRADESH,521001,919848409344,gkemtm@gmail.com,"25-238, Near Jagannadha Swamy Temple,,agannadha Puram,"
Gupta Kumar Electricals,"25-238, Near Jagannadha Swamy Temple,","agannadha Puram,",KRISHNA,MACHILIPATNAM-AP,ANDHRA PRADESH,521001,919848409344,gkemtm@gmail.com,"25-238, Near Jagannadha Swamy Temple,,agannadha Puram,"
Sri Venkataramana Enterprises,"2/406-3, Vinnakota Vari Street","Revenue Ward No -2, Machiliptanam,",KRISHNA,MACHILIPATNAM-AP,ANDHRA PRADESH,521001,9553858550,Kphani550@gmail.com,"2/406-3, Vinnakota Vari Street,Revenue Ward No -2, Machiliptanam,"
Andhra Hardwares And Electrica,"14/549, Opp.Andhra Bank,Palace Road",Kuppam,CHITTOOR,MADANAPALLE-AP,ANDHRA PRADESH,517425,919000882088,madhukuppam88@gmail.com,"14/549, Opp.Andhra Bank,Palace Road,Kuppam"
Kaamakshi Agency,"27/37/1, Rajareddy Street, Near Maremma Temple",Punganur,CHITTOOR,MADANAPALLE-AP,ANDHRA PRADESH,517247,9959950593,kaamakshiagency@gmail.com,"27/37/1, Rajareddy Street, Near Maremma Temple,Punganur"
Sri Latha Electrical And Gener,"D No.2/492, Main Road",Malikipuram Mandal,EAST GODAVARI,MALIKIPURAM-AP,ANDHRA PRADESH,533253,+919951368868,venkateswarludivvi@gmail.com,"D No.2/492, Main Road,Malikipuram Mandal"
Ravi Electricals And Engineeri,"New Building,N H-5 Road.J R Puram",,SRIKAKULAM,LAVERU-AP,ANDHRA PRADESH,532407,919440035553,rajubvegesna@gmail.com,"New Building,N H-5 Road.J R Puram,"
Sri Venkata Durga Electricals,"526/1, Main Road,Old NH-5 Road",Haripuram,SRIKAKULAM,MANDASA MANDAL-AP,ANDHRA PRADESH,532243,919441757075,purushothamj2000@gmail.com,"526/1, Main Road,Old NH-5 Road,Haripuram"
Madhu Agencies,"9/108, Raghavendra Swamy Temple",,PRAKASAM,MARKAPUR-AP,ANDHRA PRADESH,523316,+919052686888,madhuchakka78@gmail.com,"9/108, Raghavendra Swamy Temple,"
Madhu Agencies,"9/108, Raghavendra Swamy Temple",,PRAKASAM,MARKAPUR-AP,ANDHRA PRADESH,523316,+919052686888,madhuchakka78@gmail.com,"9/108, Raghavendra Swamy Temple,"
Sri Sun Light Agencies,"5-176, Gandhi Nagar Road",Rajam,VIZIANAGARAM,MERAKAMUDIDAM-AP,ANDHRA PRADESH,532127,+919440153478,srisunlightagencies290@gmail.com,"5-176, Gandhi Nagar Road,Rajam"
Sri Sun Light Enterprises,"Shop No 1,Palakonda Road",Rajam,VIZIANAGARAM,MERAKAMUDIDAM-AP,ANDHRA PRADESH,532127,+919030803581,Leelaramvagada@gmail.com,"Shop No 1,Palakonda Road,Rajam"
Sri Sun Light Enterprises,"Shop No 1,Palakonda Road",Rajam,VIZIANAGARAM,MERAKAMUDIDAM-AP,ANDHRA PRADESH,532127,+919030803581,Leelaramvagada@gmail.com,"Shop No 1,Palakonda Road,Rajam"
Santhosh Enterprises,"8-237/A, Prakasam Road,Opp. SBI",Nagari,CHITTOOR,NAGARI-AP,ANDHRA PRADESH,517590,919000472089,dineshece415@gmail.com,"8-237/A, Prakasam Road,Opp. SBI,Nagari"
Devi Electronics,"Door No. 2-471, Near Balaji Kalyanamandapam,","Balaji Complex, Nandyal",KURNOOL,NANDYAL-AP,ANDHRA PRADESH,518501,919440420251,devielectronics52@yahoo.com,"Door No. 2-471, Near Balaji Kalyanamandapam,,Balaji Complex, Nandyal"
Devi Electronics,"Door No. 2-471, Near Balaji Kalyanamandapam,","Balaji Complex, Nandyal",KURNOOL,NANDYAL-AP,ANDHRA PRADESH,518501,919440420251,devielectronics52@yahoo.com,"Door No. 2-471, Near Balaji Kalyanamandapam,,Balaji Complex, Nandyal"
Anand Computers,"D No 4/17b, Srinivasa Nagar, Nandyal,","Kurnool, Andhra Pradesh",KURNOOL,NANDYAL-AP,ANDHRA PRADESH,518501,9866760627,Anandcomputers98@gmail.com,"D No 4/17b, Srinivasa Nagar, Nandyal,,Kurnool, Andhra Pradesh"
D B Electronics and Appliance,"40-9-A-2, Park Road,",,KURNOOL,KURNOOL-AP,ANDHRA PRADESH,518001,919367722338,dbkurnool@gmail.com,"40-9-A-2, Park Road,,"
Durga Agencies,"40-393/16,Park Road",Municipal Building,KURNOOL,KURNOOL-AP,ANDHRA PRADESH,518001,919440294369,arjun.sivapuram@gmail.com,"40-393/16,Park Road,Municipal Building"
Savitri Engineering Corporatio,"D.No.40-319-3B, Opp: Raj Theatre,","Station Road,",KURNOOL,KURNOOL-AP,ANDHRA PRADESH,518001,919440626222,savitrienggcorpn.knl@gmail.com,"D.No.40-319-3B, Opp: Raj Theatre,,Station Road,"
Savitri Engineering Corporatio,"D.No.40-319-3B, Opp: Raj Theatre,","Station Road,",KURNOOL,KURNOOL-AP,ANDHRA PRADESH,518001,919440626222,savitrienggcorpn.knl@gmail.com,"D.No.40-319-3B, Opp: Raj Theatre,,Station Road,"
Satish Traders,"D No.21/408,Near Roads And Building","Guest House, Adoni Mandal",KURNOOL,KURNOOL-AP,ANDHRA PRADESH,518301,919912899969,satishtraders.adoni@gmail.com,"D No.21/408,Near Roads And Building,Guest House, Adoni Mandal"
Sai Krishna Trading Company,"2/126, Alur Road, Adoni",,KURNOOL,KURNOOL-AP,ANDHRA PRADESH,518001,+919441082696,saikrishna.krnl@gmail.com,"2/126, Alur Road, Adoni,"
Sri Beeram Electricals,"Shop No 87/733, Madhava Nagar",Revenue Ward 87 Kurnool,KURNOOL,KURNOOL-AP,ANDHRA PRADESH,518002,9492945134,Sridharreddy101@gmail.com,"Shop No 87/733, Madhava Nagar,Revenue Ward 87 Kurnool"
Blue Star Agencies,"38/49, Minchin Bazar",,KURNOOL,KURNOOL-AP,ANDHRA PRADESH,518001,9441068056,bluestaragencies1975@gmail.com,"38/49, Minchin Bazar,"
Naveen Udyog,D. No.28-9-79. Suryabagh,,SRIKAKULAM,ICHCHAPURAM-AP,ANDHRA PRADESH,530020,919985369690,naveenudyog84@gmail.com,
Naveen Udyog,D. No.28-9-79. Suryabagh,,SRIKAKULAM,ICHCHAPURAM-AP,ANDHRA PRADESH,530020,919985369690,naveenudyog84@gmail.com,
Ramdev Electricals,"10-1-24, Main Road",Ichapuram,SRIKAKULAM,ICHCHAPURAM-AP,ANDHRA PRADESH,532312,919533402498,ramdevelectricals05@gmail.com,"10-1-24, Main Road,Ichapuram"
Sri Vinayaka Electricals,"Ground Floor, 1-94,Opposite RTC Complex",Narsipatnam,VISAKHAPATNAM,NARSIPATNAM-AP,ANDHRA PRADESH,531116,+919849654171,vinay9909@gmail.com,"Ground Floor, 1-94,Opposite RTC Complex,Narsipatnam"
Durga Traders,"D.No. 6-2-13/1, Kotipallivari Street,",,WEST GODAVARI,NARASAPUR -AP,ANDHRA PRADESH,534275,919848322118,durgatraders.nsp@gmail.com,"D.No. 6-2-13/1, Kotipallivari Street,,"
Gopalakrishna Electrical And S,"7-6-16/a,swarajyam Vari Street,","Narsapuram,west Godavari",WEST GODAVARI,NARASAPUR -AP,ANDHRA PRADESH,534275,8099771646,Devasinagaram46@gmail.com,"7-6-16/a,swarajyam Vari Street,,Narsapuram,west Godavari"
Durga Traders,"D.No. 6-2-13/1, Kotipallivari Street,",,WEST GODAVARI,NARASAPUR -AP,ANDHRA PRADESH,534275,919848322118,durgatraders.nsp@gmail.com,"D.No. 6-2-13/1, Kotipallivari Street,,"
Sri Sai Agencies,"Near Girls High School,7-68/2,Udi Road",Ganapavaram Mandal,WEST GODAVARI,GANAPAVARAM-AP,ANDHRA PRADESH,534198,919705421155,srisaiagenciesgnp@gmail.com,"Near Girls High School,7-68/2,Udi Road,Ganapavaram Mandal"
Lakshmi Venkateswara Traders,"HSC-7851,East Street, Venkatagiri",Sri Potti Sriramulu,NELLORE,NELLORE-AP,ANDHRA PRADESH,524132,919603254010,karthik.petluru@gmail.com,"HSC-7851,East Street, Venkatagiri,Sri Potti Sriram"
Lakshmi Sunandha Enterprises,"Sai Nagar, Navalakula Gardens,4 Th Mile,nellore",,NELLORE,NELLORE-AP,ANDHRA PRADESH,524002,9133497142,LSE.HAVELLS@GMAIL.COM,"Sai Nagar, Navalakula Gardens,4 Th Mile,nellore,"
Shree Mahadev Light House,"18/206,Ist Floor,Sikharamvari Street,Nr.Post Office",,NELLORE,NELLORE-AP,ANDHRA PRADESH,524002,919966143461,shreemahadevlighthouse1987@gmail.com,"18/206,Ist Floor,Sikharamvari Street,Nr.Post Office,"
Shree Mahadev Light House,"18/206,Ist Floor,Sikharamvari Street,Nr.Post Office",,NELLORE,NELLORE-AP,ANDHRA PRADESH,524002,919966143461,shreemahadevlighthouse1987@gmail.com,"18/206,Ist Floor,Sikharamvari Street,Nr.Post Office,"
Teja Enterprises,"27-01-1674, Back Side Swamidoss School,","Balaji Nagar,",NELLORE,NELLORE-AP,ANDHRA PRADESH,524002,8340987777,Tejahavells60@gmail.com,"27-01-1674, Back Side Swamidoss School,,Balaji Nagar,"
Star Enterprises,"8-41, Chakali Street,pakala Post And Mandal",Chittoor,CHITTOOR,PAKALA-AP,ANDHRA PRADESH,517112,9182909048,Mohammad.shaik1912@gmail.com,"8-41, Chakali Street,pakala Post And Mandal,Chittoor"
Karthikeya Electrical Stores,"43-4-31, Near Yenugula Meda,",Palakol,WEST GODAVARI,PALAKOL-AP,ANDHRA PRADESH,534260,9618150555,Shankarraoesarla555@gmail.com,"43-4-31, Near Yenugula Meda,,Palakol"
Om Sri Balaji Electricals And,"Sanitaryware, 20-1-79, Ganta Palem",Near Parvathamma Temple,PRAKASAM,ONGOLE-AP,ANDHRA PRADESH,523001,918019776414,omsribalajiongole@gmail.com,"Sanitaryware, 20-1-79, Ganta Palem,Near Parvathamma Temple"
Pramoda Communications,"Shop No.5, 4th Floor,Guptas Squre,60ft Road",,PRAKASAM,ONGOLE-AP,ANDHRA PRADESH,523001,+918886526599,vmspramoda@gmail.com,"Shop No.5, 4th Floor,Guptas Squre,60ft Road,"
Sri Ramanjaneya Electricals,"147/5, Near Old Police Station,main Road",Chimakurthy,PRAKASAM,ONGOLE-AP,ANDHRA PRADESH,523226,7729844555,Ramanjuneyulu.09@gmail.com,"147/5, Near Old Police Station,main Road,Chimakurthy"
Universal Traders,"Sy. No.91/2,Kurnool Road, Budawada",Chimakurthy M,PRAKASAM,ONGOLE-AP,ANDHRA PRADESH,523226,919849078098,universaltraders5577@gmail.com,"Sy. No.91/2,Kurnool Road, Budawada,Chimakurthy M"
Universal Traders,"Sy. No.91/2,Kurnool Road, Budawada",Chimakurthy M,PRAKASAM,ONGOLE-AP,ANDHRA PRADESH,523226,919849078098,universaltraders5577@gmail.com,"Sy. No.91/2,Kurnool Road, Budawada,Chimakurthy M"
Skm Agencies,9/387/1a,"Mannuru, Rajampeta",CUDDAPAH,ONTIMITTA-AP,ANDHRA PRADESH,516126,9770033786,Syedmansoorts786@gmail.com,"9/387/1a,Mannuru, Rajampeta"
Om Siva Sakthi Traders,"1/6/993/A, KT Road, Petrol Bunk Side,",Palasa,SRIKAKULAM,PALASA KASIBUGGA-AP,ANDHRA PRADESH,532221,919490223432,tejapotnuru22@gmail.com,"1/6/993/A, KT Road, Petrol Bunk Side,,Palasa"
Bhawani Enterprises,"8-3-117/2,Main Road,Nr.RTC Complex",Srikakulam District,SRIKAKULAM,PALAKONDA-AP,ANDHRA PRADESH,532440,919440520573,rrkheda@gmail.com,"8-3-117/2,Main Road,Nr.RTC Complex,Srikakulam District"
Sri Santhosh Durga Elecl.And E,D.No:4-278 Opp: Rcm School Post Off,Palakonda (Srikakulam Dist),SRIKAKULAM,PALAKONDA-AP,ANDHRA PRADESH,532440,919440001251,Ravikalyani.kandula@gmail.com,"D.No:4-278 Opp: Rcm School Post Off,Palakonda (Srikakulam Dist)"
Hari Siva Agencies,13-2-25 Gunneswar Nagar,Kasibugga,SRIKAKULAM,PALASA MANDAL-AP,ANDHRA PRADESH,532222,+919948004204,Harisivaagencies@gmail.com,"13-2-25 Gunneswar Nagar,Kasibugga"
Sri Multi Star Electricals,"13/15, NH 5 Road",,SRIKAKULAM,PALASA MANDAL-AP,ANDHRA PRADESH,532222,+919440963204,srimultistarele1976@gmail.com,"13/15, NH 5 Road,"
Jaya Lakshmi Electricals,"8/70 8/70A UP Stair,MainRd,Pathapat",,SRIKAKULAM,PATHAPATNAM-AP,ANDHRA PRADESH,532213,919985200251,msureshkumar111@gmail.com,"8/70 8/70A UP Stair,MainRd,Pathapat,"
CR Enterprises,"5/28,Gandla Street, Sulurupeta",,NELLORE,DORAVARISATRAM-AP,ANDHRA PRADESH,524121,919440001115,chandrareddy.ele@gmail.com,"5/28,Gandla Street, Sulurupeta,"
CR Enterprises,"5/28,Gandla Street, Sulurupeta",,NELLORE,DORAVARISATRAM-AP,ANDHRA PRADESH,524121,919440001115,chandrareddy.ele@gmail.com,"5/28,Gandla Street, Sulurupeta,"
Lakshmi Priya Traders,"Ward No.3,Main Road, Darga Road",Naidupeta,NELLORE,DORAVARISATRAM-AP,ANDHRA PRADESH,524126,919441760336,mohanravi21ragi26@gmail.com,"Ward No.3,Main Road, Darga Road,Naidupeta"
Ramdev Electricals,"9-327-2, SVT Street, Sri Potti Sriramulu",Sullurpet,NELLORE,DORAVARISATRAM-AP,ANDHRA PRADESH,524121,+919440455931,narpath_ramdev@rediff.com,"9-327-2, SVT Street, Sri Potti Sriramulu,Sullurpet"
MSN Marketing,"D No 7-179/4, Near Sri Chaitanya Techno School,Balaji Nagar",Venkatapuram,WEST GODAVARI,ELURU-AP,ANDHRA PRADESH,534001,+919493006791,msn6791@gmail.com,"D No 7-179/4, Near Sri Chaitanya Techno School,Balaji Nagar,Venkatapuram"
Nerella Raja Electricals And S,"22C-12-20/2, Mothevari Satram Veedhi, Sirya Complex",,WEST GODAVARI,ELURU-AP,ANDHRA PRADESH,534002,+919494340555,nerellarajaelectricalsanitary@gmail.com,"22C-12-20/2, Mothevari Satram Veedhi, Sirya Complex,"
Knobs and Knockers,"2 5/5 1st Flr, Upstairs Radhesyam H","Main Rd, Sujathanagar, Pendurthi Mandal,",VISAKHAPATNAM,PENDURTHI-AP,ANDHRA PRADESH,530051,919966611149,vulisi777@gmail.com,"2 5/5 1st Flr, Upstairs Radhesyam H,Main Rd, Sujathanagar, Pendurthi Mandal,"
Balaji Traders,"12-132, Janapadu Road","Revenue Ward 12,  Piduguralla, Guntur",GUNTUR,PIDUGURALLA-AP,ANDHRA PRADESH,522413,9866699499,Harish.u9499@gmail.com,"12-132, Janapadu Road,Revenue Ward 12,  Piduguralla, Guntur"
Sri Rohini Agencies,"D.No.16-5-30, Mosque Street,SPP Road",Ponnur,GUNTUR,PONNUR-AP,ANDHRA PRADESH,522124,919441753050,srimaharajaele.pnr@gmail.com,"D.No.16-5-30, Mosque Street,SPP Road,Ponnur"
Vamsi Enterprises Ponduru,"4512, Market","Market Road, Ponduru",SRIKAKULAM,PONDURU-AP,ANDHRA PRADESH,532168,9441288162,Pennamvamsikrishna@gmail.com,"4512, Market,Market Road, Ponduru"
Sri Satyanarayana Stores,"D.No.13/16,Kondepi Road",Tangutur,PRAKASAM,PRAKASAM-AP,ANDHRA PRADESH,523274,919246463050,harikoppuri@gmail.com,"D.No.13/16,Kondepi Road,Tangutur"
Sai Baba Agencies,11/69 Main Road,Porumamilla Kadapa,CUDDAPAH,PORUMAMILLA-AP,ANDHRA PRADESH,516193,9440978942,Saibabaagencies01@gmail.com,"11/69 Main Road,Porumamilla Kadapa"
Kaluva Enterprises,"New Belding ,Main Road","Srinivasa Complex, Porumamilla",CUDDAPAH,PORUMAMILLA-AP,ANDHRA PRADESH,516193,9490714725,Kaluvaenterprises@gmail.com,"New Belding ,Main Road,Srinivasa Complex, Porumamilla"
Sri Muralikrishna Electricals,"4-9-76, Main Road, Near Andhra Bank",Pulivendala,CUDDAPAH,PULIVENDLA-AP,ANDHRA PRADESH,516390,919440281194,muralikrishnadara74@gmail.com,"4-9-76, Main Road, Near Andhra Bank,Pulivendala"
Sri Balaji Agencies,"3-5-103, Near Andhra Bank, Kadapa Road",Pulivendula,CUDDAPAH,PULIVENDLA-AP,ANDHRA PRADESH,516390,9440552355,Aravetivinod@gmail.com,"3-5-103, Near Andhra Bank, Kadapa Road,Pulivendula"
Sri Sai Prashanthi Enterprises,"S.No.3, Yenumulapalli",Prashanthi Nilayam,ANANTAPUR,PUTTAPARTHI-AP,ANDHRA PRADESH,515134,919440247815,saiprasanthienterprises@gmail.com,"S.No.3, Yenumulapalli,Prashanthi Nilayam"
Mahalakshmi Electricals And Ha,"15/220,Karvetnagaram Road",Puttur,CHITTOOR,PUTTUR-AP,ANDHRA PRADESH,517583,919849632086,s.ganpathlal@gmail.com,"15/220,Karvetnagaram Road,Puttur"
Apollo Electricals andBuilding,"41-4-3/11F, Thadi Thota,",Garapati Industrial Area,EAST GODAVARI,RAJAHMUNDRY-AP,ANDHRA PRADESH,533103,919703112344,apolloelectricalsrjy@gmail.com,"41-4-3/11F, Thadi Thota,,Garapati Industrial Area"
Apollo Electricals andBuilding,"41-4-3/11F, Thadi Thota,",Garapati Industrial Area,EAST GODAVARI,RAJAHMUNDRY-AP,ANDHRA PRADESH,533103,919703112344,apolloelectricalsrjy@gmail.com,"41-4-3/11F, Thadi Thota,,Garapati Industrial Area"
Mnk Distributors,"6-6-4 Manyam Mansions, Vadrevu Vari Veedhi","T Nagar , Rajamahendravaram",EAST GODAVARI,RAJAHMUNDRY-AP,ANDHRA PRADESH,533101,9441543511,Mnkrjy@gmail.com,"6-6-4 Manyam Mansions, Vadrevu Vari Veedhi,T Nagar , Rajamahendravaram"
Jayalakshmi Steels,"11/95,,11/96, Aditya Nagar",Morampudi Junction,EAST GODAVARI,RAJAHMUNDRY-AP,ANDHRA PRADESH,533103,919703644489,jayalakshmi_steel1@yahoo.com,"11/95,,11/96, Aditya Nagar,Morampudi Junction"
Sri Matangi Traders,"6-3/17,Saravari St. Bazer",Peddapuram,EAST GODAVARI,PEDDAPURAM-AP,ANDHRA PRADESH,533437,919866655925,scfpdp@gmail.com,"6-3/17,Saravari St. Bazer,Peddapuram"
Vaishnavi Electricals,"4/106, Main Road,Opp. R B Bungalaw",Rajampet,CUDDAPAH,RAJAMPET-AP,ANDHRA PRADESH,516115,919059733222,ramanaraoutukuru@gmail.com,"4/106, Main Road,Opp. R B Bungalaw,Rajampet"
Datta Pumps And Spares,"10-3-428,Lakshmi Bazar",Rayadurg,ANANTAPUR,RAYADURG-AP,ANDHRA PRADESH,515865,919440781322,gounianandreddy123@gmail.com,"10-3-428,Lakshmi Bazar,Rayadurg"
Virat Technologies,No 7-232,Vissanapeta,KRISHNA,REDDIGUDEM-AP,ANDHRA PRADESH,521215,9666928346,Virat.salesteam@gmail.com,"No 7-232,Vissanapeta"
Lakshmi Durga Slabs And Tiles,"11-15-13,Main Road,Nr.Saibaba Temple",Repalle,GUNTUR,REPALLE-AP,ANDHRA PRADESH,522265,9849685055,lakshmidurga4455@gmail.com,"11-15-13,Main Road,Nr.Saibaba Temple,Repalle"
Ganesh Agencies,"130/212, Bose Nagar","Rayachoty, YSR District",CUDDAPAH,RAYACHOTI-AP,ANDHRA PRADESH,516269,+919640208809,prasanthroyal49@gmail.com,"130/212, Bose Nagar,Rayachoty, YSR District"
Sri Ganesh Srinivasa Agencies,"46/146, Bus Stand Road,",,CUDDAPAH,RAYACHOTI-AP,ANDHRA PRADESH,516269,919441500009,ganesh_srinivasa@yahoo.co.in,"46/146, Bus Stand Road,,"
Sunitha Agencies,"28/95, Opp Municipal Office,rajampetta Road,","Rayachoty,ysr District,kadappa",CUDDAPAH,RAYACHOTI-AP,ANDHRA PRADESH,516269,9440919276,Sunithaagencies12@gmail.com,"28/95, Opp Municipal Office,rajampetta Road,,Rayachoty,ysr District,kadappa"
Patel Tiles And Sanitary,"18-50/1, Main Road,Near College","Opp.Vinjumuri Buldg., Chodavaram",SRIKAKULAM,RAJAM-AP,ANDHRA PRADESH,531036,919966379924,gebaram9966379924@gmail.com,"18-50/1, Main Road,Near College,Opp.Vinjumuri Buldg., Chodavaram"
Sri Rajeshwar Electrical And S,"Main Road, Sy No 83/39-65, New Building, Near Vinayatemple","Ambedkar Sankshama Sewa Bldg,Chodavaram",SRIKAKULAM,RAJAM-AP,ANDHRA PRADESH,531036,9949182673,gebaram9966379924@gmail.com,"Main Road, Sy No 83/39-65, New Building, Near Vinayatemple,Ambedkar Sankshama Sewa Bldg,Chodavaram"
Bhagwathi Enterprises,"12-4/14, G T Road, Side of Canara Bank",,SRIKAKULAM,SRIKAKULAM-AP,ANDHRA PRADESH,532001,+919160696923,daragaram21@gmail.com,"12-4/14, G T Road, Side of Canara Bank,"
Siri Engineering Co,"Convent Junction, Palakonda Road",,SRIKAKULAM,SRIKAKULAM-AP,ANDHRA PRADESH,532001,919848098686,siriengco@gmail.com,"Convent Junction, Palakonda Road,"
Sri Sai Electronics And Home N,"1/20, Sarubujjili Main Road, Sarubujjili,",Srikakulam,SRIKAKULAM,SRIKAKULAM-AP,ANDHRA PRADESH,532458,9492291109,Ravikumarbp007@gmail.com,"1/20, Sarubujjili Main Road, Sarubujjili,,Srikakulam"
Bhuvan Agencies,"5-229, M G Street",Srikalahasti,CHITTOOR,SRIKALAHASTI-AP,ANDHRA PRADESH,517644,9348737383,kbhuvaneswar7383@gmail.com,"5-229, M G Street,Srikalahasti"
Sri Balaji Hardwares And Elect,"D. No. 16-69-2, Panagal Road,",,CHITTOOR,SRIKALAHASTI-AP,ANDHRA PRADESH,517644,919701732720,sbhe.dschoudharyskht@gmail.com,"D. No. 16-69-2, Panagal Road,,"
Sri Balaji Hardwares And Elect,"D. No. 16-69-2, Panagal Road,",,CHITTOOR,SRIKALAHASTI-AP,ANDHRA PRADESH,517644,919701732720,sbhe.dschoudharyskht@gmail.com,"D. No. 16-69-2, Panagal Road,,"
